{
  "type": "FeatureCollection",
  "features": [
    {
      "type": "Feature",
      "properties": {
        "norad_id": 57400,
        "name": "TIANMU-1 08",
        "group": "weather",
        "lat": -13.545379335606064,
        "lon": 34.96849692612339,
        "alt_km": 487.984615411111,
        "timestamp": "2025-12-09T11:33:54.442601+00:00",
        "meta_object_name": "TIANMU-1 08",
        "meta_object_id": "2023-101B",
        "meta_epoch": "2025-12-09T03:45:58.224096",
        "meta_mean_motion": 15.27973468,
        "meta_eccentricity": 0.000756,
        "meta_inclination": 97.2865,
        "meta_ra_of_asc_node": 32.8843,
        "meta_arg_of_pericenter": 93.89,
        "meta_mean_anomaly": 266.3204,
        "meta_ephemeris_type": 0,
        "meta_classification_type": "U",
        "meta_norad_cat_id": 57400,
        "meta_element_set_no": 999,
        "meta_rev_at_epoch": 13260,
        "meta_bstar": 0.0003348,
        "meta_mean_motion_dot": 9.075e-05,
        "meta_mean_motion_ddot": 0,
        "tle_line1": "1 57400U 23101B   25343.15692389  .00009075  00000+0  33480-3 0  9994",
        "tle_line2": "2 57400  97.2865  32.8843 0007560  93.8900 266.3204 15.27973468132607"
      },
      "geometry": {
        "type": "Point",
        "coordinates": [
          34.96849692612339,
          -13.545379335606064
        ]
      }
    },
    {
      "type": "Feature",
      "properties": {
        "norad_id": 57401,
        "name": "TIANMU-1 09",
        "group": "weather",
        "lat": 58.006320391231185,
        "lon": 20.905738681765275,
        "alt_km": 472.3217645324721,
        "timestamp": "2025-12-09T11:33:54.442611+00:00",
        "meta_object_name": "TIANMU-1 09",
        "meta_object_id": "2023-101C",
        "meta_epoch": "2025-12-09T03:27:02.039040",
        "meta_mean_motion": 15.28000403,
        "meta_eccentricity": 0.0006813,
        "meta_inclination": 97.2821,
        "meta_ra_of_asc_node": 32.3869,
        "meta_arg_of_pericenter": 93.4132,
        "meta_mean_anomaly": 266.7887,
        "meta_ephemeris_type": 0,
        "meta_classification_type": "U",
        "meta_norad_cat_id": 57401,
        "meta_element_set_no": 999,
        "meta_rev_at_epoch": 13260,
        "meta_bstar": 0.00035081,
        "meta_mean_motion_dot": 9.519e-05,
        "meta_mean_motion_ddot": 0,
        "tle_line1": "1 57401U 23101C   25343.14377360  .00009519  00000+0  35081-3 0  9995",
        "tle_line2": "2 57401  97.2821  32.3869 0006813  93.4132 266.7887 15.28000403132608"
      },
      "geometry": {
        "type": "Point",
        "coordinates": [
          20.905738681765275,
          58.006320391231185
        ]
      }
    },
    {
      "type": "Feature",
      "properties": {
        "norad_id": 57402,
        "name": "TIANMU-1 10",
        "group": "weather",
        "lat": -50.47140298447789,
        "lon": -155.36151265454453,
        "alt_km": 493.163759295976,
        "timestamp": "2025-12-09T11:33:54.442624+00:00",
        "meta_object_name": "TIANMU-1 10",
        "meta_object_id": "2023-101D",
        "meta_epoch": "2025-12-09T04:16:16.506048",
        "meta_mean_motion": 15.27991217,
        "meta_eccentricity": 0.000856,
        "meta_inclination": 97.2902,
        "meta_ra_of_asc_node": 33.2662,
        "meta_arg_of_pericenter": 93.6044,
        "meta_mean_anomaly": 266.6174,
        "meta_ephemeris_type": 0,
        "meta_classification_type": "U",
        "meta_norad_cat_id": 57402,
        "meta_element_set_no": 999,
        "meta_rev_at_epoch": 13260,
        "meta_bstar": 0.0003375,
        "meta_mean_motion_dot": 9.156e-05,
        "meta_mean_motion_ddot": 0,
        "tle_line1": "1 57402U 23101D   25343.17796882  .00009156  00000+0  33750-3 0  9991",
        "tle_line2": "2 57402  97.2902  33.2662 0008560  93.6044 266.6174 15.27991217132604"
      },
      "geometry": {
        "type": "Point",
        "coordinates": [
          -155.36151265454453,
          -50.47140298447789
        ]
      }
    },
    {
      "type": "Feature",
      "properties": {
        "norad_id": 57490,
        "name": "FENGYUN 3F",
        "group": "weather",
        "lat": -42.74864603452292,
        "lon": 59.972829830073984,
        "alt_km": 832.6557044608135,
        "timestamp": "2025-12-09T11:33:54.442634+00:00",
        "meta_object_name": "FENGYUN 3F",
        "meta_object_id": "2023-111A",
        "meta_epoch": "2025-12-09T05:00:14.814720",
        "meta_mean_motion": 14.19892042,
        "meta_eccentricity": 6.54e-05,
        "meta_inclination": 98.7088,
        "meta_ra_of_asc_node": 51.5588,
        "meta_arg_of_pericenter": 95.4819,
        "meta_mean_anomaly": 264.6432,
        "meta_ephemeris_type": 0,
        "meta_classification_type": "U",
        "meta_norad_cat_id": 57490,
        "meta_element_set_no": 999,
        "meta_rev_at_epoch": 12190,
        "meta_bstar": 8.3156e-05,
        "meta_mean_motion_dot": 1.33e-06,
        "meta_mean_motion_ddot": 0,
        "tle_line1": "1 57490U 23111A   25343.20850480  .00000133  00000+0  83156-4 0  9990",
        "tle_line2": "2 57490  98.7088  51.5588 0000654  95.4819 264.6432 14.19892042121900"
      },
      "geometry": {
        "type": "Point",
        "coordinates": [
          59.972829830073984,
          -42.74864603452292
        ]
      }
    },
    {
      "type": "Feature",
      "properties": {
        "norad_id": 58584,
        "name": "ARKTIKA-M 2",
        "group": "weather",
        "lat": 58.35342333487724,
        "lon": -129.71996465705536,
        "alt_km": 35058.81746880019,
        "timestamp": "2025-12-09T11:33:54.442646+00:00",
        "meta_object_name": "ARKTIKA-M 2",
        "meta_object_id": "2023-198A",
        "meta_epoch": "2025-12-08T20:10:13.977120",
        "meta_mean_motion": 2.0060476,
        "meta_eccentricity": 0.6864699,
        "meta_inclination": 63.2247,
        "meta_ra_of_asc_node": 175.3151,
        "meta_arg_of_pericenter": 268.1185,
        "meta_mean_anomaly": 18.8267,
        "meta_ephemeris_type": 0,
        "meta_classification_type": "U",
        "meta_norad_cat_id": 58584,
        "meta_element_set_no": 999,
        "meta_rev_at_epoch": 1450,
        "meta_bstar": 0,
        "meta_mean_motion_dot": 1.66e-06,
        "meta_mean_motion_ddot": 0,
        "tle_line1": "1 58584U 23198A   25342.84043955  .00000166  00000+0  00000+0 0  9998",
        "tle_line2": "2 58584  63.2247 175.3151 6864699 268.1185  18.8267  2.00604760 14505"
      },
      "geometry": {
        "type": "Point",
        "coordinates": [
          -129.71996465705536,
          58.35342333487724
        ]
      }
    },
    {
      "type": "Feature",
      "properties": {
        "norad_id": 58645,
        "name": "TIANMU-1 11",
        "group": "weather",
        "lat": 82.60181481522469,
        "lon": -92.23059822659337,
        "alt_km": 488.1051317406436,
        "timestamp": "2025-12-09T11:33:54.443252+00:00",
        "meta_object_name": "TIANMU-1 11",
        "meta_object_id": "2023-205A",
        "meta_epoch": "2025-12-09T04:52:04.281312",
        "meta_mean_motion": 15.24531083,
        "meta_eccentricity": 0.0008218,
        "meta_inclination": 97.3607,
        "meta_ra_of_asc_node": 2.8881,
        "meta_arg_of_pericenter": 324.7087,
        "meta_mean_anomaly": 35.3605,
        "meta_ephemeris_type": 0,
        "meta_classification_type": "U",
        "meta_norad_cat_id": 58645,
        "meta_element_set_no": 999,
        "meta_rev_at_epoch": 10855,
        "meta_bstar": 0.0003294,
        "meta_mean_motion_dot": 8.043e-05,
        "meta_mean_motion_ddot": 0,
        "tle_line1": "1 58645U 23205A   25343.20282733  .00008043  00000+0  32940-3 0  9999",
        "tle_line2": "2 58645  97.3607   2.8881 0008218 324.7087  35.3605 15.24531083108552"
      },
      "geometry": {
        "type": "Point",
        "coordinates": [
          -92.23059822659337,
          82.60181481522469
        ]
      }
    },
    {
      "type": "Feature",
      "properties": {
        "norad_id": 58646,
        "name": "TIANMU-1 12",
        "group": "weather",
        "lat": -55.16772593491382,
        "lon": 13.67310603870808,
        "alt_km": 495.42081460428017,
        "timestamp": "2025-12-09T11:33:54.443270+00:00",
        "meta_object_name": "TIANMU-1 12",
        "meta_object_id": "2023-205B",
        "meta_epoch": "2025-12-08T16:54:17.464320",
        "meta_mean_motion": 15.2440473,
        "meta_eccentricity": 0.00061116,
        "meta_inclination": 97.3594,
        "meta_ra_of_asc_node": 2.2053,
        "meta_arg_of_pericenter": 309.5629,
        "meta_mean_anomaly": 50.5068,
        "meta_ephemeris_type": 0,
        "meta_classification_type": "U",
        "meta_norad_cat_id": 58646,
        "meta_element_set_no": 999,
        "meta_rev_at_epoch": 10846,
        "meta_bstar": 0.00036097392,
        "meta_mean_motion_dot": 8.785e-05,
        "meta_mean_motion_ddot": 0,
        "tle_line1": "1 58646U 23205B   25342.70436880  .00008785  00000+0  36097-3 0  9998",
        "tle_line2": "2 58646  97.3594   2.2053 0006111 309.5629  50.5068 15.24404730108466"
      },
      "geometry": {
        "type": "Point",
        "coordinates": [
          13.67310603870808,
          -55.16772593491382
        ]
      }
    }
  ]
}